[{"OBJECT_NAME":"STARLINK-1246","OBJECT_ID":"2020-012BK","EPOCH":"2026-03-09T07:11:40.046784","MEAN_MOTION":15.30215288,"ECCENTRICITY":0.0001484,"INCLINATION":53.1615,"RA_OF_ASC_NODE":41.0601,"ARG_OF_PERICENTER":96.3755,"MEAN_ANOMALY":263.7415,"EPHEMERIS_TYPE":0,"CLASSIFICATION_TYPE":"U","NORAD_CAT_ID":45235,"ELEMENT_SET_NO":999,"REV_AT_EPOCH":33491,"BSTAR":0.00020978976,"MEAN_MOTION_DOT":5.862e-5,"MEAN_MOTION_DDOT":0},{"OBJECT_NAME":"NUSAT-44 (MARIA MITCHELL)","OBJECT_ID":"2024-043AA","EPOCH":"2026-03-09T22:12:18.524160","MEAN_MOTION":15.29764305,"ECCENTRICITY":0.0007331,"INCLINATION":97.5299,"RA_OF_ASC_NODE":207.7691,"ARG_OF_PERICENTER":214.9017,"MEAN_ANOMALY":145.1743,"EPHEMERIS_TYPE":0,"CLASSIFICATION_TYPE":"U","NORAD_CAT_ID":59122,"ELEMENT_SET_NO":999,"REV_AT_EPOCH":11209,"BSTAR":0.00061063193,"MEAN_MOTION_DOT":0.00017562,"MEAN_MOTION_DDOT":0}]
